
FLYING LAPTOP
1 42831U 17042G   26170.31856334  .00002429  00000+0  19330-3 0  9996
2 42831  97.4699 325.7687 0019650 114.7791 245.5481 15.01156173486774

PISAT
1 41784U 16059B   26169.98313382  .00000641  00000+0  11674-3 0  9998
2 41784  97.8178 170.3587 0028540 196.9067 163.1191 14.68985886520006

SALSAT
1 46495U 20068K   26169.97697596  .00005999  00000+0  21050-3 0  9998
2 46495  97.8853 173.1506 0007950 300.6759  59.3696 15.29820569315637

SAUDISAT 1C (SO-50)
1 27607U 02058C   26170.24569630  .00000770  00000+0  10829-3 0  9994
2 27607  64.5512 122.6160 0075173 262.0965  97.1604 14.83050851264765

SAUDISAT 2
1 28371U 04025F   26169.95225641  .00000175  00000+0  50287-4 0  9998
2 28371  98.5507 169.9798 0023538 292.5681  67.3025 14.56684729166008

SAUDISAT 3
1 31118U 07012B   26170.09474718  .00000191  00000+0  39040-4 0  9990
2 31118  98.1456 120.4967 0013750 217.3851 142.6399 14.71426506 28023
